start=new Date('2022-01-30T00:00:00.000Z').valueOf();
sats=[{"APOAPSIS":"548.699","ECCENTRICITY":"0.00021200","CLASSIFICATION_TYPE":"U","EPOCH":"2022-01-29T20:25:35.118624","COUNTRY_CODE":"US","MEAN_MOTION_DOT":"-0.00000448","RA_OF_ASC_NODE":"209.6523","CENTER_NAME":"EARTH","ARG_OF_PERICENTER":"71.8957","TIME_SYSTEM":"UTC","REV_AT_EPOCH":"8000","RCS_SIZE":"LARGE","BSTAR":"-0.00001115900000","FILE":"3287083","TLE_LINE1":"1 46138U 20057X   22029.85110091 -.00000448  00000-0 -11159-4 0  9995","MEAN_MOTION":"15.06394237","OBJECT_TYPE":"PAYLOAD","OBJECT_ID":"2020-057X","ELEMENT_SET_NO":"999","SEMIMAJOR_AXIS":"6925.366","SITE":"AFETR","REF_FRAME":"TEME","OBJECT_NAME":"STARLINK-1590","GP_ID":"194911215","LAUNCH_DATE":"2020-08-18","MEAN_ANOMALY":"288.2262","PERIOD":"95.593","DECAY_DATE":null,"MEAN_ELEMENT_THEORY":"SGP4","PERIAPSIS":"545.763","INCLINATION":"53.0539","MEAN_MOTION_DDOT":"0.0000000000000","TLE_LINE2":"2 46138  53.0539 209.6523 0002120  71.8957 288.2262 15.06394237 80006","EPHEMERIS_TYPE":"0","NORAD_CAT_ID":"46138"},{"EPHEMERIS_TYPE":"0","TLE_LINE2":"2 46140  53.0535 169.8367 0001864  79.5395 280.5804 15.06394810 81828","NORAD_CAT_ID":"46140","PERIOD":"95.592","MEAN_ANOMALY":"280.5804","DECAY_DATE":null,"PERIAPSIS":"545.939","MEAN_ELEMENT_THEORY":"SGP4","INCLINATION":"53.0535","MEAN_MOTION_DDOT":"0.0000000000000","SEMIMAJOR_AXIS":"6925.364","SITE":"AFETR","OBJECT_NAME":"STARLINK-1594","REF_FRAME":"TEME","GP_ID":"194911466","LAUNCH_DATE":"2020-08-18","BSTAR":"0.00006195600000","FILE":"3287083","TLE_LINE1":"1 46140U 20057Z   22029.81054627  .00000641  00000-0  61956-4 0  9999","OBJECT_TYPE":"PAYLOAD","MEAN_MOTION":"15.06394810","OBJECT_ID":"2020-057Z","ELEMENT_SET_NO":"999","ARG_OF_PERICENTER":"79.5395","TIME_SYSTEM":"UTC","REV_AT_EPOCH":"8182","RCS_SIZE":"LARGE","RA_OF_ASC_NODE":"169.8367","CENTER_NAME":"EARTH","COUNTRY_CODE":"US","MEAN_MOTION_DOT":"0.00000641","ECCENTRICITY":"0.00018640","APOAPSIS":"548.520","CLASSIFICATION_TYPE":"U","EPOCH":"2022-01-29T19:27:11.197728"},{"MEAN_MOTION_DDOT":"0.0000000000000","PERIOD":"95.592","MEAN_ANOMALY":"277.0456","DECAY_DATE":null,"PERIAPSIS":"546.123","MEAN_ELEMENT_THEORY":"SGP4","INCLINATION":"53.0538","TLE_LINE2":"2 46141  53.0538 169.9365 0001576  83.0712 277.0456 15.06399831 80555","EPHEMERIS_TYPE":"0","NORAD_CAT_ID":"46141","OBJECT_ID":"2020-057AA","ELEMENT_SET_NO":"999","BSTAR":"0.00000118530000","FILE":"3287083","TLE_LINE1":"1 46141U 20057AA  22029.78842363 -.00000264  00000-0  11853-5 0  9992","OBJECT_TYPE":"PAYLOAD","MEAN_MOTION":"15.06399831","GP_ID":"194911718","LAUNCH_DATE":"2020-08-18","SITE":"AFETR","OBJECT_NAME":"STARLINK-1596","SEMIMAJOR_AXIS":"6925.349","REF_FRAME":"TEME","RA_OF_ASC_NODE":"169.9365","CENTER_NAME":"EARTH","ARG_OF_PERICENTER":"83.0712","TIME_SYSTEM":"UTC","REV_AT_EPOCH":"8055","RCS_SIZE":"LARGE","EPOCH":"2022-01-29T18:55:19.801632","ECCENTRICITY":"0.00015760","APOAPSIS":"548.306","CLASSIFICATION_TYPE":"U","MEAN_MOTION_DOT":"-0.00000264","COUNTRY_CODE":"US"},{"ELEMENT_SET_NO":"999","OBJECT_ID":"2020-057AB","TLE_LINE1":"1 46142U 20057AB  22029.87321477  .00001359  00000-0  11017-3 0  9996","OBJECT_TYPE":"PAYLOAD","MEAN_MOTION":"15.06393592","FILE":"3287083","BSTAR":"0.00011017000000","GP_ID":"194912468","LAUNCH_DATE":"2020-08-18","SITE":"AFETR","OBJECT_NAME":"STARLINK-1597","SEMIMAJOR_AXIS":"6925.368","REF_FRAME":"TEME","MEAN_MOTION_DDOT":"0.0000000000000","MEAN_ELEMENT_THEORY":"SGP4","PERIAPSIS":"545.758","INCLINATION":"53.0534","MEAN_ANOMALY":"279.6429","PERIOD":"95.593","DECAY_DATE":null,"TLE_LINE2":"2 46142  53.0534 209.5629 0002130  80.4801 279.6429 15.06393592 80009","EPHEMERIS_TYPE":"0","NORAD_CAT_ID":"46142","EPOCH":"2022-01-29T20:57:25.756128","CLASSIFICATION_TYPE":"U","APOAPSIS":"548.708","ECCENTRICITY":"0.00021300","MEAN_MOTION_DOT":"0.00001359","COUNTRY_CODE":"US","CENTER_NAME":"EARTH","RA_OF_ASC_NODE":"209.5629","REV_AT_EPOCH":"8000","RCS_SIZE":"LARGE","ARG_OF_PERICENTER":"80.4801","TIME_SYSTEM":"UTC"},{"MEAN_MOTION_DOT":"0.00651907","COUNTRY_CODE":"US","EPOCH":"2022-01-29T16:57:03.071520","CLASSIFICATION_TYPE":"U","ECCENTRICITY":"0.00033510","APOAPSIS":"297.018","RCS_SIZE":"LARGE","REV_AT_EPOCH":"8083","TIME_SYSTEM":"UTC","ARG_OF_PERICENTER":"18.5635","CENTER_NAME":"EARTH","RA_OF_ASC_NODE":"149.7208","LAUNCH_DATE":"2020-08-18","GP_ID":"194910716","SITE":"AFETR","SEMIMAJOR_AXIS":"6672.917","OBJECT_NAME":"STARLINK-1599","REF_FRAME":"TEME","ELEMENT_SET_NO":"999","OBJECT_ID":"2020-057AC","MEAN_MOTION":"15.92682527","OBJECT_TYPE":"PAYLOAD","TLE_LINE1":"1 46143U 20057AC  22029.70628555  .00651907  18289-3  18627-2 0  9990","FILE":"3287083","BSTAR":"0.00186270000000","NORAD_CAT_ID":"46143","TLE_LINE2":"2 46143  53.0508 149.7208 0003351  18.5635 341.5513 15.92682527 80830","EPHEMERIS_TYPE":"0","MEAN_MOTION_DDOT":"0.0001828900000","INCLINATION":"53.0508","MEAN_ELEMENT_THEORY":"SGP4","PERIAPSIS":"292.546","DECAY_DATE":null,"PERIOD":"90.413","MEAN_ANOMALY":"341.5513"},{"APOAPSIS":"548.360","ECCENTRICITY":"0.00019170","CLASSIFICATION_TYPE":"U","EPOCH":"2022-01-29T20:06:58.719168","COUNTRY_CODE":"US","MEAN_MOTION_DOT":"-0.00012530","RA_OF_ASC_NODE":"189.7178","CENTER_NAME":"EARTH","TIME_SYSTEM":"UTC","ARG_OF_PERICENTER":"80.6224","RCS_SIZE":"LARGE","REV_AT_EPOCH":"6853","BSTAR":"-0.00082241000000","FILE":"3287083","OBJECT_TYPE":"PAYLOAD","MEAN_MOTION":"15.06459112","TLE_LINE1":"1 46144U 20057AD  22029.83817962 -.00012530  00000-0 -82241-3 0  9995","OBJECT_ID":"2020-057AD","ELEMENT_SET_NO":"999","SITE":"AFETR","SEMIMAJOR_AXIS":"6925.167","OBJECT_NAME":"STARLINK-1606","REF_FRAME":"TEME","LAUNCH_DATE":"2020-08-18","GP_ID":"194910967","DECAY_DATE":null,"MEAN_ANOMALY":"279.4981","PERIOD":"95.588","INCLINATION":"53.0540","PERIAPSIS":"545.705","MEAN_ELEMENT_THEORY":"SGP4","MEAN_MOTION_DDOT":"0.0000000000000","NORAD_CAT_ID":"46144","TLE_LINE2":"2 46144  53.0540 189.7178 0001917  80.6224 279.4981 15.06459112 68535","EPHEMERIS_TYPE":"0"},{"GP_ID":"194912218","LAUNCH_DATE":"2020-08-18","SITE":"AFETR","REF_FRAME":"TEME","SEMIMAJOR_AXIS":"6925.348","OBJECT_NAME":"STARLINK-1608","ELEMENT_SET_NO":"999","OBJECT_ID":"2020-057AF","TLE_LINE1":"1 46146U 20057AF  22029.88426450  .00001287  00000-0  10527-3 0  9993","MEAN_MOTION":"15.06400288","OBJECT_TYPE":"PAYLOAD","BSTAR":"0.00010527000000","FILE":"3287083","EPHEMERIS_TYPE":"0","TLE_LINE2":"2 46146  53.0526 209.5026 0001693  77.4757 282.6421 15.06400288 80012","NORAD_CAT_ID":"46146","MEAN_MOTION_DDOT":"0.0000000000000","PERIAPSIS":"546.040","MEAN_ELEMENT_THEORY":"SGP4","INCLINATION":"53.0526","MEAN_ANOMALY":"282.6421","PERIOD":"95.592","DECAY_DATE":null,"MEAN_MOTION_DOT":"0.00001287","COUNTRY_CODE":"US","EPOCH":"2022-01-29T21:13:20.452800","CLASSIFICATION_TYPE":"U","APOAPSIS":"548.385","ECCENTRICITY":"0.00016930","REV_AT_EPOCH":"8001","RCS_SIZE":"LARGE","ARG_OF_PERICENTER":"77.4757","TIME_SYSTEM":"UTC","CENTER_NAME":"EARTH","RA_OF_ASC_NODE":"209.5026"},{"FILE":"3287083","BSTAR":"0.00001507400000","TLE_LINE1":"1 46147U 20057AG  22029.86585715 -.00000057  00000-0  15074-4 0  9990","MEAN_MOTION":"15.06390688","OBJECT_TYPE":"PAYLOAD","OBJECT_ID":"2020-057AG","ELEMENT_SET_NO":"999","SITE":"AFETR","SEMIMAJOR_AXIS":"6925.377","OBJECT_NAME":"STARLINK-1611","REF_FRAME":"TEME","GP_ID":"194911969","LAUNCH_DATE":"2020-08-18","PERIOD":"95.593","MEAN_ANOMALY":"278.6104","DECAY_DATE":null,"PERIAPSIS":"546.203","MEAN_ELEMENT_THEORY":"SGP4","INCLINATION":"53.0547","MEAN_MOTION_DDOT":"0.0000000000000","EPHEMERIS_TYPE":"0","TLE_LINE2":"2 46147  53.0547 209.5804 0001501  81.5055 278.6104 15.06390688 81268","NORAD_CAT_ID":"46147","APOAPSIS":"548.282","ECCENTRICITY":"0.00015010","CLASSIFICATION_TYPE":"U","EPOCH":"2022-01-29T20:46:50.057760","COUNTRY_CODE":"US","MEAN_MOTION_DOT":"-0.00000057","RA_OF_ASC_NODE":"209.5804","CENTER_NAME":"EARTH","ARG_OF_PERICENTER":"81.5055","TIME_SYSTEM":"UTC","REV_AT_EPOCH":"8126","RCS_SIZE":"LARGE"},{"RA_OF_ASC_NODE":"189.8502","CENTER_NAME":"EARTH","ARG_OF_PERICENTER":"80.4032","TIME_SYSTEM":"UTC","REV_AT_EPOCH":"8027","RCS_SIZE":"LARGE","ECCENTRICITY":"0.00019740","APOAPSIS":"548.623","CLASSIFICATION_TYPE":"U","EPOCH":"2022-01-29T19:19:15.034368","COUNTRY_CODE":"US","MEAN_MOTION_DOT":"0.00001486","MEAN_ANOMALY":"279.7180","PERIOD":"95.593","DECAY_DATE":null,"MEAN_ELEMENT_THEORY":"SGP4","PERIAPSIS":"545.889","INCLINATION":"53.0553","MEAN_MOTION_DDOT":"0.0000000000000","EPHEMERIS_TYPE":"0","TLE_LINE2":"2 46148  53.0553 189.8502 0001974  80.4032 279.7180 15.06386201 80270","NORAD_CAT_ID":"46148","BSTAR":"0.00011868000000","FILE":"3287083","TLE_LINE1":"1 46148U 20057AH  22029.80503512  .00001486  00000-0  11868-3 0  9992","MEAN_MOTION":"15.06386201","OBJECT_TYPE":"PAYLOAD","OBJECT_ID":"2020-057AH","ELEMENT_SET_NO":"999","REF_FRAME":"TEME","SITE":"AFETR","SEMIMAJOR_AXIS":"6925.391","OBJECT_NAME":"STARLINK-1616","GP_ID":"194911216","LAUNCH_DATE":"2020-08-18"},{"TIME_SYSTEM":"UTC","ARG_OF_PERICENTER":"83.4310","RCS_SIZE":"LARGE","REV_AT_EPOCH":"8155","RA_OF_ASC_NODE":"189.8013","CENTER_NAME":"EARTH","COUNTRY_CODE":"US","MEAN_MOTION_DOT":"-0.00002082","APOAPSIS":"548.943","ECCENTRICITY":"0.00025160","CLASSIFICATION_TYPE":"U","EPOCH":"2022-01-29T19:40:27.921504","NORAD_CAT_ID":"46149","EPHEMERIS_TYPE":"0","TLE_LINE2":"2 46149  53.0543 189.8013 0002516  83.4310 276.6965 15.06404186 81554","DECAY_DATE":null,"MEAN_ANOMALY":"276.6965","PERIOD":"95.592","INCLINATION":"53.0543","MEAN_ELEMENT_THEORY":"SGP4","PERIAPSIS":"545.458","MEAN_MOTION_DDOT":"0.0000000000000","SITE":"AFETR","REF_FRAME":"TEME","SEMIMAJOR_AXIS":"6925.336","OBJECT_NAME":"STARLINK-1620","LAUNCH_DATE":"2020-08-18","GP_ID":"194911467","FILE":"3287083","BSTAR":"-0.00012089000000","MEAN_MOTION":"15.06404186","OBJECT_TYPE":"PAYLOAD","TLE_LINE1":"1 46149U 20057AJ  22029.81976761 -.00002082  00000-0 -12089-3 0  9995","OBJECT_ID":"2020-057AJ","ELEMENT_SET_NO":"999"}];
